SBSS (USA 216)          
1 37168U 10048A   26068.88624904  .00004946  00000+0  24191-3 0  9993
2 37168  97.7474 312.3885 0082264 184.8326 306.5835 15.15724210837421
STARLINK-34655          
1 65027U 25161N   26068.87734281  .00032869  00000+0  11161-2 0  9996
2 65027  53.1602 293.6767 0003460 168.0698 192.0386 15.30221140 35354
